[{"OBJECT_NAME":"STARLINK-31855","OBJECT_ID":"2024-097D","EPOCH":"2026-02-01T14:53:30.964128","MEAN_MOTION":15.27619089,"ECCENTRICITY":0.00011166,"INCLINATION":43.0018,"RA_OF_ASC_NODE":117.7795,"ARG_OF_PERICENTER":258.8663,"MEAN_ANOMALY":101.2063,"EPHEMERIS_TYPE":0,"CLASSIFICATION_TYPE":"U","NORAD_CAT_ID":59838,"ELEMENT_SET_NO":999,"REV_AT_EPOCH":9640,"BSTAR":0.00073087507,"MEAN_MOTION_DOT":0.00019928,"MEAN_MOTION_DDOT":0},{"OBJECT_NAME":"STARLINK-31887","OBJECT_ID":"2024-097E","EPOCH":"2026-02-01T16:01:58.314720","MEAN_MOTION":15.27582244,"ECCENTRICITY":0.00014181,"INCLINATION":43.0032,"RA_OF_ASC_NODE":118.1454,"ARG_OF_PERICENTER":268.8323,"MEAN_ANOMALY":91.2366,"EPHEMERIS_TYPE":0,"CLASSIFICATION_TYPE":"U","NORAD_CAT_ID":59839,"ELEMENT_SET_NO":999,"REV_AT_EPOCH":9640,"BSTAR":0.00010974792,"MEAN_MOTION_DOT":2.759e-5,"MEAN_MOTION_DDOT":0},{"OBJECT_NAME":"STARLINK-31852","OBJECT_ID":"2024-097G","EPOCH":"2026-02-01T15:29:50.422272","MEAN_MOTION":15.27592795,"ECCENTRICITY":0.00018468,"INCLINATION":43.0033,"RA_OF_ASC_NODE":110.192,"ARG_OF_PERICENTER":258.4779,"MEAN_ANOMALY":101.5865,"EPHEMERIS_TYPE":0,"CLASSIFICATION_TYPE":"U","NORAD_CAT_ID":59841,"ELEMENT_SET_NO":999,"REV_AT_EPOCH":9649,"BSTAR":0.00011550119,"MEAN_MOTION_DOT":2.919e-5,"MEAN_MOTION_DDOT":0},{"OBJECT_NAME":"STARLINK-31906","OBJECT_ID":"2024-097H","EPOCH":"2026-02-01T14:01:56.424576","MEAN_MOTION":15.27579238,"ECCENTRICITY":8.95e-5,"INCLINATION":42.9983,"RA_OF_ASC_NODE":118.378,"ARG_OF_PERICENTER":258.54,"MEAN_ANOMALY":101.5351,"EPHEMERIS_TYPE":0,"CLASSIFICATION_TYPE":"U","NORAD_CAT_ID":59842,"ELEMENT_SET_NO":999,"REV_AT_EPOCH":9639,"BSTAR":8.8166003e-5,"MEAN_MOTION_DOT":2.165e-5,"MEAN_MOTION_DDOT":0},{"OBJECT_NAME":"STARLINK-31857","OBJECT_ID":"2024-097J","EPOCH":"2026-02-01T06:53:28.848480","MEAN_MOTION":15.27597228,"ECCENTRICITY":0.00014248,"INCLINATION":43.0025,"RA_OF_ASC_NODE":119.579,"ARG_OF_PERICENTER":269.0961,"MEAN_ANOMALY":90.9727,"EPHEMERIS_TYPE":0,"CLASSIFICATION_TYPE":"U","NORAD_CAT_ID":59843,"ELEMENT_SET_NO":999,"REV_AT_EPOCH":9635,"BSTAR":1.1206304e-5,"MEAN_MOTION_DOT":4.6e-7,"MEAN_MOTION_DDOT":0},{"OBJECT_NAME":"STARLINK-31851","OBJECT_ID":"2024-097K","EPOCH":"2026-02-01T07:13:50.473632","MEAN_MOTION":15.27577474,"ECCENTRICITY":8.321e-5,"INCLINATION":43.0014,"RA_OF_ASC_NODE":119.6919,"ARG_OF_PERICENTER":213.1073,"MEAN_ANOMALY":146.9727,"EPHEMERIS_TYPE":0,"CLASSIFICATION_TYPE":"U","NORAD_CAT_ID":59844,"ELEMENT_SET_NO":999,"REV_AT_EPOCH":9635,"BSTAR":9.0716088e-5,"MEAN_MOTION_DOT":2.235e-5,"MEAN_MOTION_DDOT":0},{"OBJECT_NAME":"STARLINK-31903","OBJECT_ID":"2024-097L","EPOCH":"2026-02-01T15:15:15.568704","MEAN_MOTION":15.2758162,"ECCENTRICITY":3.608e-5,"INCLINATION":42.994,"RA_OF_ASC_NODE":110.9719,"ARG_OF_PERICENTER":112.7789,"MEAN_ANOMALY":247.31,"EPHEMERIS_TYPE":0,"CLASSIFICATION_TYPE":"U","NORAD_CAT_ID":59845,"ELEMENT_SET_NO":999,"REV_AT_EPOCH":9648,"BSTAR":0.00011569901,"MEAN_MOTION_DOT":2.924e-5,"MEAN_MOTION_DDOT":0},{"OBJECT_NAME":"STARLINK-31922","OBJECT_ID":"2024-097M","EPOCH":"2026-02-01T14:49:49.614240","MEAN_MOTION":15.27573045,"ECCENTRICITY":0.00010792,"INCLINATION":43.0057,"RA_OF_ASC_NODE":117.7626,"ARG_OF_PERICENTER":289.7733,"MEAN_ANOMALY":70.3002,"EPHEMERIS_TYPE":0,"CLASSIFICATION_TYPE":"U","NORAD_CAT_ID":59846,"ELEMENT_SET_NO":999,"REV_AT_EPOCH":9640,"BSTAR":-2.3904555e-5,"MEAN_MOTION_DOT":-9.2e-6,"MEAN_MOTION_DDOT":0},{"OBJECT_NAME":"STARLINK-31889","OBJECT_ID":"2024-097N","EPOCH":"2026-02-01T13:01:04.359648","MEAN_MOTION":15.2758023,"ECCENTRICITY":3.544e-5,"INCLINATION":42.999,"RA_OF_ASC_NODE":118.9241,"ARG_OF_PERICENTER":265.3697,"MEAN_ANOMALY":94.7114,"EPHEMERIS_TYPE":0,"CLASSIFICATION_TYPE":"U","NORAD_CAT_ID":59847,"ELEMENT_SET_NO":999,"REV_AT_EPOCH":9638,"BSTAR":0.00013535034,"MEAN_MOTION_DOT":3.465e-5,"MEAN_MOTION_DDOT":0},{"OBJECT_NAME":"STARLINK-31859","OBJECT_ID":"2024-097P","EPOCH":"2026-02-01T16:58:39.886176","MEAN_MOTION":15.27590209,"ECCENTRICITY":3.033e-5,"INCLINATION":42.9982,"RA_OF_ASC_NODE":110.6546,"ARG_OF_PERICENTER":284.615,"MEAN_ANOMALY":75.4668,"EPHEMERIS_TYPE":0,"CLASSIFICATION_TYPE":"U","NORAD_CAT_ID":59848,"ELEMENT_SET_NO":999,"REV_AT_EPOCH":9649,"BSTAR":9.2190886e-5,"MEAN_MOTION_DOT":2.277e-5,"MEAN_MOTION_DDOT":0},{"OBJECT_NAME":"STARLINK-31895","OBJECT_ID":"2024-097Q","EPOCH":"2026-02-01T15:10:10.161120","MEAN_MOTION":15.27583874,"ECCENTRICITY":0.00011788,"INCLINATION":43.0001,"RA_OF_ASC_NODE":117.873,"ARG_OF_PERICENTER":196.0809,"MEAN_ANOMALY":164.0005,"EPHEMERIS_TYPE":0,"CLASSIFICATION_TYPE":"U","NORAD_CAT_ID":59849,"ELEMENT_SET_NO":999,"REV_AT_EPOCH":9640,"BSTAR":0.00015087848,"MEAN_MOTION_DOT":3.892e-5,"MEAN_MOTION_DDOT":0},{"OBJECT_NAME":"STARLINK-31899","OBJECT_ID":"2024-097R","EPOCH":"2026-02-01T12:07:24.601440","MEAN_MOTION":15.27584859,"ECCENTRICITY":0.00010888,"INCLINATION":43.0002,"RA_OF_ASC_NODE":118.6393,"ARG_OF_PERICENTER":233.6871,"MEAN_ANOMALY":126.388,"EPHEMERIS_TYPE":0,"CLASSIFICATION_TYPE":"U","NORAD_CAT_ID":59850,"ELEMENT_SET_NO":999,"REV_AT_EPOCH":9638,"BSTAR":0.00014876001,"MEAN_MOTION_DOT":3.834e-5,"MEAN_MOTION_DDOT":0},{"OBJECT_NAME":"STARLINK-31896","OBJECT_ID":"2024-097S","EPOCH":"2026-02-01T15:21:16.712928","MEAN_MOTION":15.27590111,"ECCENTRICITY":0.00016555,"INCLINATION":42.998,"RA_OF_ASC_NODE":117.9303,"ARG_OF_PERICENTER":269.243,"MEAN_ANOMALY":90.8232,"EPHEMERIS_TYPE":0,"CLASSIFICATION_TYPE":"U","NORAD_CAT_ID":59851,"ELEMENT_SET_NO":999,"REV_AT_EPOCH":9640,"BSTAR":0.00025937779,"MEAN_MOTION_DOT":6.884e-5,"MEAN_MOTION_DDOT":0},{"OBJECT_NAME":"STARLINK-31892","OBJECT_ID":"2024-097U","EPOCH":"2026-02-01T17:21:18.736992","MEAN_MOTION":15.2761423,"ECCENTRICITY":0.00018862,"INCLINATION":42.9994,"RA_OF_ASC_NODE":117.6953,"ARG_OF_PERICENTER":245.3886,"MEAN_ANOMALY":114.6769,"EPHEMERIS_TYPE":0,"CLASSIFICATION_TYPE":"U","NORAD_CAT_ID":59853,"ELEMENT_SET_NO":999,"REV_AT_EPOCH":9641,"BSTAR":0.00033338617,"MEAN_MOTION_DOT":8.933e-5,"MEAN_MOTION_DDOT":0},{"OBJECT_NAME":"STARLINK-31891","OBJECT_ID":"2024-097V","EPOCH":"2026-02-01T14:18:34.358400","MEAN_MOTION":15.27565725,"ECCENTRICITY":6.367e-5,"INCLINATION":42.9966,"RA_OF_ASC_NODE":118.4617,"ARG_OF_PERICENTER":260.1645,"MEAN_ANOMALY":99.9135,"EPHEMERIS_TYPE":0,"CLASSIFICATION_TYPE":"U","NORAD_CAT_ID":59854,"ELEMENT_SET_NO":999,"REV_AT_EPOCH":9639,"BSTAR":0.00017405038,"MEAN_MOTION_DOT":4.529e-5,"MEAN_MOTION_DDOT":0},{"OBJECT_NAME":"STARLINK-31882","OBJECT_ID":"2024-097W","EPOCH":"2026-02-01T12:10:39.931968","MEAN_MOTION":15.27580789,"ECCENTRICITY":0.00013384,"INCLINATION":42.9988,"RA_OF_ASC_NODE":111.7228,"ARG_OF_PERICENTER":270.691,"MEAN_ANOMALY":89.3789,"EPHEMERIS_TYPE":0,"CLASSIFICATION_TYPE":"U","NORAD_CAT_ID":59855,"ELEMENT_SET_NO":999,"REV_AT_EPOCH":9646,"BSTAR":0.00034014028,"MEAN_MOTION_DOT":9.11e-5,"MEAN_MOTION_DDOT":0},{"OBJECT_NAME":"STARLINK-31691","OBJECT_ID":"2024-097X","EPOCH":"2026-02-01T14:38:43.208448","MEAN_MOTION":15.27576942,"ECCENTRICITY":8.368e-5,"INCLINATION":42.9997,"RA_OF_ASC_NODE":117.7028,"ARG_OF_PERICENTER":257.3772,"MEAN_ANOMALY":102.6987,"EPHEMERIS_TYPE":0,"CLASSIFICATION_TYPE":"U","NORAD_CAT_ID":59856,"ELEMENT_SET_NO":999,"REV_AT_EPOCH":9640,"BSTAR":7.0182346e-5,"MEAN_MOTION_DOT":1.67e-5,"MEAN_MOTION_DDOT":0},{"OBJECT_NAME":"STARLINK-31569","OBJECT_ID":"2024-097Y","EPOCH":"2026-02-01T13:56:22.447104","MEAN_MOTION":15.27591623,"ECCENTRICITY":5.041e-5,"INCLINATION":42.9957,"RA_OF_ASC_NODE":118.3468,"ARG_OF_PERICENTER":285.2789,"MEAN_ANOMALY":74.8007,"EPHEMERIS_TYPE":0,"CLASSIFICATION_TYPE":"U","NORAD_CAT_ID":59857,"ELEMENT_SET_NO":999,"REV_AT_EPOCH":9639,"BSTAR":0.00021335513,"MEAN_MOTION_DOT":5.616e-5,"MEAN_MOTION_DDOT":0},{"OBJECT_NAME":"STARLINK-31654","OBJECT_ID":"2024-098A","EPOCH":"2026-02-01T06:43:07.314528","MEAN_MOTION":15.2757172,"ECCENTRICITY":5.976e-5,"INCLINATION":43.0009,"RA_OF_ASC_NODE":116.1912,"ARG_OF_PERICENTER":261.0962,"MEAN_ANOMALY":98.9822,"EPHEMERIS_TYPE":0,"CLASSIFICATION_TYPE":"U","NORAD_CAT_ID":59858,"ELEMENT_SET_NO":999,"REV_AT_EPOCH":9635,"BSTAR":4.8806987e-5,"MEAN_MOTION_DOT":1.081e-5,"MEAN_MOTION_DDOT":0},{"OBJECT_NAME":"STARLINK-31442","OBJECT_ID":"2024-098B","EPOCH":"2026-02-01T14:44:57.293664","MEAN_MOTION":15.27590079,"ECCENTRICITY":3.467e-5,"INCLINATION":42.9952,"RA_OF_ASC_NODE":125.6243,"ARG_OF_PERICENTER":321.4356,"MEAN_ANOMALY":38.6471,"EPHEMERIS_TYPE":0,"CLASSIFICATION_TYPE":"U","NORAD_CAT_ID":59859,"ELEMENT_SET_NO":999,"REV_AT_EPOCH":9628,"BSTAR":0.00010476767,"MEAN_MOTION_DOT":2.623e-5,"MEAN_MOTION_DDOT":0},{"OBJECT_NAME":"STARLINK-31651","OBJECT_ID":"2024-098C","EPOCH":"2026-02-01T15:28:00.560352","MEAN_MOTION":15.27585533,"ECCENTRICITY":9.943e-5,"INCLINATION":43.0012,"RA_OF_ASC_NODE":121.5492,"ARG_OF_PERICENTER":236.2206,"MEAN_ANOMALY":123.8551,"EPHEMERIS_TYPE":0,"CLASSIFICATION_TYPE":"U","NORAD_CAT_ID":59860,"ELEMENT_SET_NO":999,"REV_AT_EPOCH":9633,"BSTAR":6.1506054e-5,"MEAN_MOTION_DOT":1.431e-5,"MEAN_MOTION_DDOT":0},{"OBJECT_NAME":"STARLINK-31584","OBJECT_ID":"2024-098E","EPOCH":"2026-02-01T15:13:12.620640","MEAN_MOTION":15.27574178,"ECCENTRICITY":9.639e-5,"INCLINATION":43.0016,"RA_OF_ASC_NODE":121.4725,"ARG_OF_PERICENTER":243.0637,"MEAN_ANOMALY":117.0116,"EPHEMERIS_TYPE":0,"CLASSIFICATION_TYPE":"U","NORAD_CAT_ID":59862,"ELEMENT_SET_NO":999,"REV_AT_EPOCH":9633,"BSTAR":0.00011496986,"MEAN_MOTION_DOT":2.902e-5,"MEAN_MOTION_DDOT":0},{"OBJECT_NAME":"STARLINK-31950","OBJECT_ID":"2024-098F","EPOCH":"2026-02-01T14:04:56.514144","MEAN_MOTION":15.27595236,"ECCENTRICITY":0.00012135,"INCLINATION":42.9998,"RA_OF_ASC_NODE":121.974,"ARG_OF_PERICENTER":264.7395,"MEAN_ANOMALY":95.3318,"EPHEMERIS_TYPE":0,"CLASSIFICATION_TYPE":"U","NORAD_CAT_ID":59863,"ELEMENT_SET_NO":999,"REV_AT_EPOCH":9632,"BSTAR":0.0001837453,"MEAN_MOTION_DOT":4.8e-5,"MEAN_MOTION_DDOT":0}]
